{
  "norad_id": 58481,
  "name": "STARLINK-30956",
  "history": [
    {
      "epoch": "2026-03-28T20:16:29.511264Z",
      "apogee_km": 486.4741734075542,
      "perigee_km": 484.6879594179509,
      "latitude_deg": -1.2392087932347575e-05,
      "longitude_deg": 162.5461281938037,
      "height_km": 485.5342971850269,
      "semi_major_axis_km": 6863.718066412753,
      "eccentricity": 0.00013012,
      "inclination_deg": 43.0023,
      "raan_deg": 292.9285,
      "arg_perigee_deg": 258.6139,
      "mean_anomaly_deg": 101.4566,
      "mean_motion_rev_day": 15.2673481
    },
    {
      "epoch": "2026-03-28T23:24:54.511488Z",
      "apogee_km": 486.4662851523253,
      "perigee_km": 484.6940733766387,
      "latitude_deg": -6.008775449249776e-06,
      "longitude_deg": 114.57500072142972,
      "height_km": 485.55321861972425,
      "semi_major_axis_km": 6863.717179264481,
      "eccentricity": 0.0001291,
      "inclination_deg": 43.0022,
      "raan_deg": 292.1905,
      "arg_perigee_deg": 257.2107,
      "mean_anomaly_deg": 102.86,
      "mean_motion_rev_day": 15.26735106
    },
    {
      "epoch": "2026-03-29T22:58:01.648992Z",
      "apogee_km": 486.3265755000748,
      "perigee_km": 485.1350080514212,
      "latitude_deg": -2.2603612863514383e-05,
      "longitude_deg": 114.79319834452437,
      "height_km": 485.4470593286702,
      "semi_major_axis_km": 6863.867791775748,
      "eccentricity": 8.68e-05,
      "inclination_deg": 43.0021,
      "raan_deg": 286.6557,
      "arg_perigee_deg": 275.8093,
      "mean_anomaly_deg": 84.2659,
      "mean_motion_rev_day": 15.26684855
    },
    {
      "epoch": "2026-03-29T22:58:01.649856Z",
      "apogee_km": 486.32636958404055,
      "perigee_km": 485.13521396745546,
      "latitude_deg": -2.4950491972210945e-05,
      "longitude_deg": 114.79319223203488,
      "height_km": 485.447080168095,
      "semi_major_axis_km": 6863.867791775748,
      "eccentricity": 8.677e-05,
      "inclination_deg": 43.0021,
      "raan_deg": 286.6557,
      "arg_perigee_deg": 275.8093,
      "mean_anomaly_deg": 84.2659,
      "mean_motion_rev_day": 15.26684855
    },
    {
      "epoch": "2026-03-30T14:40:06.077280Z",
      "apogee_km": 486.54136439240847,
      "perigee_km": 484.5823274678032,
      "latitude_deg": 1.3134699151454962e-05,
      "longitude_deg": -125.05954062382557,
      "height_km": 485.3519694972437,
      "semi_major_axis_km": 6863.698845930106,
      "eccentricity": 0.00014271,
      "inclination_deg": 43.0026,
      "raan_deg": 282.9662,
      "arg_perigee_deg": 269.2378,
      "mean_anomaly_deg": 90.831,
      "mean_motion_rev_day": 15.26741223
    },
    {
      "epoch": "2026-03-30T22:31:08.255136Z",
      "apogee_km": 486.5460148962393,
      "perigee_km": 484.5580160098034,
      "latitude_deg": 4.2050305625945096e-05,
      "longitude_deg": 115.01390329952582,
      "height_km": 485.34221163239664,
      "semi_major_axis_km": 6863.689015453021,
      "eccentricity": 0.00014482,
      "inclination_deg": 43.0023,
      "raan_deg": 281.1211,
      "arg_perigee_deg": 269.2436,
      "mean_anomaly_deg": 90.825,
      "mean_motion_rev_day": 15.26744503
    },
    {
      "epoch": "2026-03-31T20:30:03.547008Z",
      "apogee_km": 486.52597500215506,
      "perigee_km": 484.62335412873654,
      "latitude_deg": 8.969566650213868e-06,
      "longitude_deg": 139.21421678446129,
      "height_km": 485.41560600508154,
      "semi_major_axis_km": 6863.711664565445,
      "eccentricity": 0.0001386,
      "inclination_deg": 43.0025,
      "raan_deg": 275.9546,
      "arg_perigee_deg": 266.1484,
      "mean_anomaly_deg": 93.9209,
      "mean_motion_rev_day": 15.26736946
    },
    {
      "epoch": "2026-04-01T20:03:10.217088Z",
      "apogee_km": 486.5434051141783,
      "perigee_km": 484.56528926791725,
      "latitude_deg": -6.580565150473257e-05,
      "longitude_deg": 139.435706057837,
      "height_km": 485.2355802897102,
      "semi_major_axis_km": 6863.6913471910475,
      "eccentricity": 0.0001441,
      "inclination_deg": 43.0026,
      "raan_deg": 270.4212,
      "arg_perigee_deg": 275.5636,
      "mean_anomaly_deg": 84.505,
      "mean_motion_rev_day": 15.26743725
    },
    {
      "epoch": "2026-04-02T19:36:16.911360Z",
      "apogee_km": 486.4909644111658,
      "perigee_km": 484.52521645726665,
      "latitude_deg": -1.7180037689170993e-05,
      "longitude_deg": 139.65392538014058,
      "height_km": 485.25902366367836,
      "semi_major_axis_km": 6863.645090434216,
      "eccentricity": 0.0001432,
      "inclination_deg": 43.0002,
      "raan_deg": 264.8845,
      "arg_perigee_deg": 271.5102,
      "mean_anomaly_deg": 88.5585,
      "mean_motion_rev_day": 15.26759159
    },
    {
      "epoch": "2026-04-02T21:10:29.194176Z",
      "apogee_km": 486.466310933969,
      "perigee_km": 484.5089424629259,
      "latitude_deg": -5.482725827072802e-06,
      "longitude_deg": 115.66967866493647,
      "height_km": 485.2163283309682,
      "semi_major_axis_km": 6863.624626698447,
      "eccentricity": 0.00014259,
      "inclination_deg": 42.9997,
      "raan_deg": 264.5159,
      "arg_perigee_deg": 272.8156,
      "mean_anomaly_deg": 87.2532,
      "mean_motion_rev_day": 15.26765987
    },
    {
      "epoch": "2026-04-03T20:43:35.904864Z",
      "apogee_km": 486.5046165324111,
      "perigee_km": 484.5059239033235,
      "latitude_deg": 3.4171181379988234e-05,
      "longitude_deg": 115.88901908237101,
      "height_km": 485.43724397670155,
      "semi_major_axis_km": 6863.642270217867,
      "eccentricity": 0.0001456,
      "inclination_deg": 43.0002,
      "raan_deg": 258.9804,
      "arg_perigee_deg": 261.0679,
      "mean_anomaly_deg": 99.0008,
      "mean_motion_rev_day": 15.267601
    },
    {
      "epoch": "2026-04-04T20:16:43.701600Z",
      "apogee_km": 486.6194761927236,
      "perigee_km": 484.50820181464496,
      "latitude_deg": -2.6971213314606725e-05,
      "longitude_deg": 116.1044135878909,
      "height_km": 485.27535589702626,
      "semi_major_axis_km": 6863.7008390036835,
      "eccentricity": 0.0001538,
      "inclination_deg": 43.0015,
      "raan_deg": 253.4456,
      "arg_perigee_deg": 273.5605,
      "mean_anomaly_deg": 86.507,
      "mean_motion_rev_day": 15.26740558
    },
    {
      "epoch": "2026-04-05T10:24:36.647136Z",
      "apogee_km": 486.60701768490344,
      "perigee_km": 484.58660899960887,
      "latitude_deg": 1.806746121379239e-05,
      "longitude_deg": -99.76690060539723,
      "height_km": 485.3374207198034,
      "semi_major_axis_km": 6863.733813342256,
      "eccentricity": 0.00014718,
      "inclination_deg": 43.0007,
      "raan_deg": 250.1252,
      "arg_perigee_deg": 272.0603,
      "mean_anomaly_deg": 88.008,
      "mean_motion_rev_day": 15.26729556
    },
    {
      "epoch": "2026-04-05T19:49:51.760128Z",
      "apogee_km": 486.5288311811337,
      "perigee_km": 484.6354056251321,
      "latitude_deg": 2.5407318133016386e-05,
      "longitude_deg": 116.31983455268626,
      "height_km": 485.29124278163465,
      "semi_major_axis_km": 6863.719118403133,
      "eccentricity": 0.00013793,
      "inclination_deg": 43.0008,
      "raan_deg": 247.9118,
      "arg_perigee_deg": 274.103,
      "mean_anomaly_deg": 85.9664,
      "mean_motion_rev_day": 15.26734459
    }
  ]
}